STARLINK-4133           
1 53253U 22086M   26068.63234572 -.00000315  00000+0 -17041-5 0  9998
2 53253  53.2170 194.3780 0001297  92.4801 267.6340 15.08839541201053
YAM-8                   
1 63254U 25052AW  26068.73092778  .00007810  00000+0  47267-3 0  9993
2 63254  97.7023 329.5345 0002369 152.6796 207.4558 15.10898938 54245
