[{"OBJECT_NAME":"STARLINK-4133","OBJECT_ID":"2022-086M","EPOCH":"2026-03-09T15:10:34.670208","MEAN_MOTION":15.08839541,"ECCENTRICITY":0.0001297,"INCLINATION":53.217,"RA_OF_ASC_NODE":194.378,"ARG_OF_PERICENTER":92.4801,"MEAN_ANOMALY":267.634,"EPHEMERIS_TYPE":0,"CLASSIFICATION_TYPE":"U","NORAD_CAT_ID":53253,"ELEMENT_SET_NO":999,"REV_AT_EPOCH":20105,"BSTAR":-1.7041e-6,"MEAN_MOTION_DOT":-3.15e-6,"MEAN_MOTION_DDOT":0},{"OBJECT_NAME":"YAM-8","OBJECT_ID":"2025-052AW","EPOCH":"2026-03-09T17:32:32.161056","MEAN_MOTION":15.10898939,"ECCENTRICITY":0.00023693,"INCLINATION":97.7023,"RA_OF_ASC_NODE":329.5345,"ARG_OF_PERICENTER":152.6796,"MEAN_ANOMALY":207.4558,"EPHEMERIS_TYPE":0,"CLASSIFICATION_TYPE":"U","NORAD_CAT_ID":63254,"ELEMENT_SET_NO":999,"REV_AT_EPOCH":5424,"BSTAR":0.00047267461,"MEAN_MOTION_DOT":7.81e-5,"MEAN_MOTION_DDOT":0}]
